start=new Date('2021-11-15T00:00:00.000Z').valueOf();
sats=[{"CENTER_NAME":"EARTH","GP_ID":"189774053","RA_OF_ASC_NODE":"25.6397","MEAN_MOTION_DOT":"0.00008930","SEMIMAJOR_AXIS":"6925.504","MEAN_MOTION_DDOT":"0.0000000000000","REF_FRAME":"TEME","MEAN_MOTION":"15.06349138","OBJECT_ID":"2021-027BM","RCS_SIZE":"LARGE","EPHEMERIS_TYPE":"0","TLE_LINE2":"2 48151  53.0572  25.6397 0001422  82.0975 278.0175 15.06349138 35193","APOAPSIS":"548.354","SITE":"AFETR","PERIOD":"95.595","LAUNCH_DATE":"2021-04-07","ARG_OF_PERICENTER":"82.0975","REV_AT_EPOCH":"3519","PERIAPSIS":"546.385","EPOCH":"2021-11-14T21:26:45.508128","ELEMENT_SET_NO":"999","DECAY_DATE":null,"FILE":"3215179","COUNTRY_CODE":"US","MEAN_ELEMENT_THEORY":"SGP4","TLE_LINE1":"1 48151U 21027BM  21318.89358227  .00008930  00000-0  61846-3 0  9998","MEAN_ANOMALY":"278.0175","INCLINATION":"53.0572","OBJECT_NAME":"STARLINK-2503","NORAD_CAT_ID":"48151","BSTAR":"0.00061846000000","CLASSIFICATION_TYPE":"U","TIME_SYSTEM":"UTC","OBJECT_TYPE":"PAYLOAD","ECCENTRICITY":"0.00014220"},{"ARG_OF_PERICENTER":"58.6833","REV_AT_EPOCH":"359","PERIOD":"95.592","LAUNCH_DATE":"2021-04-29","SITE":"AFETR","TLE_LINE2":"2 48276  53.0529 280.5247 0001886  58.6833 204.3332 15.06405295  3598","APOAPSIS":"548.503","RCS_SIZE":"LARGE","OBJECT_ID":"2021-036A","MEAN_MOTION":"15.06405295","EPHEMERIS_TYPE":"0","REF_FRAME":"TEME","MEAN_MOTION_DDOT":"0.0000000000000","SEMIMAJOR_AXIS":"6925.332","CENTER_NAME":"EARTH","MEAN_MOTION_DOT":"0.00008434","RA_OF_ASC_NODE":"280.5247","GP_ID":"189774067","TIME_SYSTEM":"UTC","ECCENTRICITY":"0.00018860","OBJECT_TYPE":"PAYLOAD","NORAD_CAT_ID":"48276","CLASSIFICATION_TYPE":"U","BSTAR":"0.00058433000000","MEAN_ANOMALY":"204.3332","INCLINATION":"53.0529","OBJECT_NAME":"STARLINK-2567","TLE_LINE1":"1 48276U 21036A   21318.91667824  .00008434  00000-0  58433-3 0  9992","FILE":"3215179","DECAY_DATE":null,"MEAN_ELEMENT_THEORY":"SGP4","COUNTRY_CODE":"US","ELEMENT_SET_NO":"999","PERIAPSIS":"545.891","EPOCH":"2021-11-14T22:00:00.999936"},{"FILE":"3215179","DECAY_DATE":null,"COUNTRY_CODE":"US","MEAN_ELEMENT_THEORY":"SGP4","ELEMENT_SET_NO":"999","PERIAPSIS":"345.785","EPOCH":"2021-11-14T22:00:00.999936","TIME_SYSTEM":"UTC","ECCENTRICITY":"0.00058050","OBJECT_TYPE":"PAYLOAD","NORAD_CAT_ID":"48277","CLASSIFICATION_TYPE":"U","BSTAR":"0.00006253800000","INCLINATION":"53.0458","MEAN_ANOMALY":"352.3859","OBJECT_NAME":"STARLINK-2569","TLE_LINE1":"1 48277U 21036B   21318.91667824  .00008176  00000-0  62538-4 0  9998","RCS_SIZE":"LARGE","OBJECT_ID":"2021-036B","MEAN_MOTION":"15.73224425","EPHEMERIS_TYPE":"0","REF_FRAME":"TEME","MEAN_MOTION_DDOT":"0.0000000000000","SEMIMAJOR_AXIS":"6727.826","CENTER_NAME":"EARTH","MEAN_MOTION_DOT":"0.00008176","RA_OF_ASC_NODE":"256.5407","GP_ID":"189774819","ARG_OF_PERICENTER":"308.2187","REV_AT_EPOCH":"370","PERIOD":"91.532","LAUNCH_DATE":"2021-04-29","SITE":"AFETR","APOAPSIS":"353.596","TLE_LINE2":"2 48277  53.0458 256.5407 0005805 308.2187 352.3859 15.73224425  3701"},{"SITE":"AFETR","TLE_LINE2":"2 48278  53.0469 260.8384 0001534  49.6185 265.9616 15.20715100  3667","APOAPSIS":"504.740","REV_AT_EPOCH":"366","ARG_OF_PERICENTER":"49.6185","LAUNCH_DATE":"2021-04-29","PERIOD":"94.692","SEMIMAJOR_AXIS":"6881.819","GP_ID":"189774570","RA_OF_ASC_NODE":"260.8384","MEAN_MOTION_DOT":"-0.01059934","CENTER_NAME":"EARTH","EPHEMERIS_TYPE":"0","OBJECT_ID":"2021-036C","MEAN_MOTION":"15.20715100","RCS_SIZE":"LARGE","MEAN_MOTION_DDOT":"0.0000000000000","REF_FRAME":"TEME","OBJECT_NAME":"STARLINK-2543","INCLINATION":"53.0469","MEAN_ANOMALY":"265.9616","TLE_LINE1":"1 48278U 21036C   21318.91667824 -.01059934  00000-0 -51972-1 0  9997","ECCENTRICITY":"0.00015340","OBJECT_TYPE":"PAYLOAD","TIME_SYSTEM":"UTC","CLASSIFICATION_TYPE":"U","BSTAR":"-0.05197200000000","NORAD_CAT_ID":"48278","EPOCH":"2021-11-14T22:00:00.999936","PERIAPSIS":"502.629","MEAN_ELEMENT_THEORY":"SGP4","COUNTRY_CODE":"US","DECAY_DATE":null,"FILE":"3215179","ELEMENT_SET_NO":"999"},{"APOAPSIS":"505.472","TLE_LINE2":"2 48279  53.0459 260.8277 0001522  52.6968 243.1572 15.20469769  3664","SITE":"AFETR","LAUNCH_DATE":"2021-04-29","PERIOD":"94.708","REV_AT_EPOCH":"366","ARG_OF_PERICENTER":"52.6968","GP_ID":"189773318","RA_OF_ASC_NODE":"260.8277","MEAN_MOTION_DOT":"-0.01059200","CENTER_NAME":"EARTH","SEMIMAJOR_AXIS":"6882.560","MEAN_MOTION_DDOT":"0.0000000000000","REF_FRAME":"TEME","EPHEMERIS_TYPE":"0","OBJECT_ID":"2021-036D","MEAN_MOTION":"15.20469769","RCS_SIZE":"LARGE","TLE_LINE1":"1 48279U 21036D   21318.91667824 -.01059200  00000-0 -52309-1 0  9999","OBJECT_NAME":"STARLINK-2580","INCLINATION":"53.0459","MEAN_ANOMALY":"243.1572","BSTAR":"-0.05230900000000","CLASSIFICATION_TYPE":"U","NORAD_CAT_ID":"48279","OBJECT_TYPE":"PAYLOAD","ECCENTRICITY":"0.00015220","TIME_SYSTEM":"UTC","EPOCH":"2021-11-14T22:00:00.999936","PERIAPSIS":"503.377","ELEMENT_SET_NO":"999","MEAN_ELEMENT_THEORY":"SGP4","COUNTRY_CODE":"US","DECAY_DATE":null,"FILE":"3215179"},{"SEMIMAJOR_AXIS":"6925.351","MEAN_MOTION_DOT":"0.00001455","RA_OF_ASC_NODE":"332.7160","GP_ID":"189746034","CENTER_NAME":"EARTH","EPHEMERIS_TYPE":"0","RCS_SIZE":"LARGE","OBJECT_ID":"2021-036E","MEAN_MOTION":"15.06399241","REF_FRAME":"TEME","MEAN_MOTION_DDOT":"0.0000000000000","SITE":"AFETR","APOAPSIS":"548.171","TLE_LINE2":"2 48280  53.0556 332.7160 0001379  66.2844 293.8290 15.06399241 30523","REV_AT_EPOCH":"3052","ARG_OF_PERICENTER":"66.2844","LAUNCH_DATE":"2021-04-29","PERIOD":"95.592","EPOCH":"2021-11-14T10:17:17.225376","PERIAPSIS":"546.261","MEAN_ELEMENT_THEORY":"SGP4","COUNTRY_CODE":"US","FILE":"3214995","DECAY_DATE":null,"ELEMENT_SET_NO":"999","OBJECT_NAME":"STARLINK-2565","INCLINATION":"53.0556","MEAN_ANOMALY":"293.8290","TLE_LINE1":"1 48280U 21036E   21318.42867159  .00001455  00000-0  11654-3 0  9996","ECCENTRICITY":"0.00013790","OBJECT_TYPE":"PAYLOAD","TIME_SYSTEM":"UTC","CLASSIFICATION_TYPE":"U","BSTAR":"0.00011654000000","NORAD_CAT_ID":"48280"},{"SITE":"AFETR","TLE_LINE2":"2 48281  53.0561 312.9595 0001734  74.0364 286.0816 15.06393472 30798","APOAPSIS":"548.434","ARG_OF_PERICENTER":"74.0364","REV_AT_EPOCH":"3079","PERIOD":"95.593","LAUNCH_DATE":"2021-04-29","SEMIMAJOR_AXIS":"6925.369","CENTER_NAME":"EARTH","GP_ID":"189747286","MEAN_MOTION_DOT":"0.00000095","RA_OF_ASC_NODE":"312.9595","OBJECT_ID":"2021-036F","MEAN_MOTION":"15.06393472","RCS_SIZE":"LARGE","EPHEMERIS_TYPE":"0","MEAN_MOTION_DDOT":"0.0000000000000","REF_FRAME":"TEME","MEAN_ANOMALY":"286.0816","INCLINATION":"53.0561","OBJECT_NAME":"STARLINK-2520","TLE_LINE1":"1 48281U 21036F   21318.37523656  .00000095  00000-0  25296-4 0  9999","TIME_SYSTEM":"UTC","ECCENTRICITY":"0.00017340","OBJECT_TYPE":"PAYLOAD","NORAD_CAT_ID":"48281","CLASSIFICATION_TYPE":"U","BSTAR":"0.00002529600000","PERIAPSIS":"546.033","EPOCH":"2021-11-14T09:00:20.438784","DECAY_DATE":null,"FILE":"3214995","MEAN_ELEMENT_THEORY":"SGP4","COUNTRY_CODE":"US","ELEMENT_SET_NO":"999"},{"INCLINATION":"53.0568","MEAN_ANOMALY":"289.0451","OBJECT_NAME":"STARLINK-2558","TLE_LINE1":"1 48282U 21036G   21318.46507615 -.00000417  00000-0 -91093-5 0  9996","TIME_SYSTEM":"UTC","ECCENTRICITY":"0.00015060","OBJECT_TYPE":"PAYLOAD","NORAD_CAT_ID":"48282","CLASSIFICATION_TYPE":"U","BSTAR":"-0.00000910930000","PERIAPSIS":"546.182","EPOCH":"2021-11-14T11:09:42.579360","DECAY_DATE":null,"FILE":"3214995","MEAN_ELEMENT_THEORY":"SGP4","COUNTRY_CODE":"US","ELEMENT_SET_NO":"999","SITE":"AFETR","APOAPSIS":"548.268","TLE_LINE2":"2 48282  53.0568 317.5639 0001506  71.0702 289.0451 15.06396247 30742","ARG_OF_PERICENTER":"71.0702","REV_AT_EPOCH":"3074","PERIOD":"95.592","LAUNCH_DATE":"2021-04-29","SEMIMAJOR_AXIS":"6925.360","CENTER_NAME":"EARTH","GP_ID":"189747535","RA_OF_ASC_NODE":"317.5639","MEAN_MOTION_DOT":"-0.00000417","MEAN_MOTION":"15.06396247","OBJECT_ID":"2021-036G","RCS_SIZE":"LARGE","EPHEMERIS_TYPE":"0","MEAN_MOTION_DDOT":"0.0000000000000","REF_FRAME":"TEME"},{"PERIAPSIS":"546.327","EPOCH":"2021-11-14T07:53:18.895488","DECAY_DATE":null,"FILE":"3214995","COUNTRY_CODE":"US","MEAN_ELEMENT_THEORY":"SGP4","ELEMENT_SET_NO":"999","INCLINATION":"53.0572","MEAN_ANOMALY":"293.9149","OBJECT_NAME":"STARLINK-2516","TLE_LINE1":"1 48283U 21036H   21318.32869092  .00001411  00000-0  11359-3 0  9990","TIME_SYSTEM":"UTC","ECCENTRICITY":"0.00012780","OBJECT_TYPE":"PAYLOAD","NORAD_CAT_ID":"48283","BSTAR":"0.00011359000000","CLASSIFICATION_TYPE":"U","SEMIMAJOR_AXIS":"6925.347","CENTER_NAME":"EARTH","GP_ID":"189746285","RA_OF_ASC_NODE":"318.1730","MEAN_MOTION_DOT":"0.00001411","MEAN_MOTION":"15.06400576","OBJECT_ID":"2021-036H","RCS_SIZE":"LARGE","EPHEMERIS_TYPE":"0","MEAN_MOTION_DDOT":"0.0000000000000","REF_FRAME":"TEME","SITE":"AFETR","TLE_LINE2":"2 48283  53.0572 318.1730 0001278  66.1974 293.9149 15.06400576 30726","APOAPSIS":"548.097","ARG_OF_PERICENTER":"66.1974","REV_AT_EPOCH":"3072","PERIOD":"95.592","LAUNCH_DATE":"2021-04-29"},{"EPOCH":"2021-11-14T12:34:37.780032","PERIAPSIS":"546.201","ELEMENT_SET_NO":"999","COUNTRY_CODE":"US","MEAN_ELEMENT_THEORY":"SGP4","FILE":"3214995","DECAY_DATE":null,"TLE_LINE1":"1 48284U 21036J   21318.52404838  .00002974  00000-0  21843-3 0  9990","OBJECT_NAME":"STARLINK-2564","MEAN_ANOMALY":"286.5577","INCLINATION":"53.0521","CLASSIFICATION_TYPE":"U","BSTAR":"0.00021843000000","NORAD_CAT_ID":"48284","ECCENTRICITY":"0.00014570","OBJECT_TYPE":"PAYLOAD","TIME_SYSTEM":"UTC","MEAN_MOTION_DOT":"0.00002974","RA_OF_ASC_NODE":"317.2957","GP_ID":"189746535","CENTER_NAME":"EARTH","SEMIMAJOR_AXIS":"6925.345","REF_FRAME":"TEME","MEAN_MOTION_DDOT":"0.0000000000000","EPHEMERIS_TYPE":"0","RCS_SIZE":"LARGE","OBJECT_ID":"2021-036J","MEAN_MOTION":"15.06401172","APOAPSIS":"548.219","TLE_LINE2":"2 48284  53.0521 317.2957 0001457  73.5572 286.5577 15.06401172 30745","SITE":"AFETR","LAUNCH_DATE":"2021-04-29","PERIOD":"95.592","REV_AT_EPOCH":"3074","ARG_OF_PERICENTER":"73.5572"}];
